STARLINK-35801          
1 66265U 25247A   26068.59885163  .00019209  00000+0  65932-3 0  9990
2 66265  53.1592 191.5943 0001055  47.6791 312.4299 15.30184206 21024
KUIPER-00208            
1 67775U 26030M   26068.67231509  .00043852  00000+0  13883-2 0  9994
2 67775  51.8846 219.6993 0015525  57.3146 302.9333 15.32208734  5080
